{
  "type": "FeatureCollection",
  "features": [
    {
      "type": "Feature",
      "properties": {
        "desde": "Universidad Javeriana",
        "hacia": "Parque Nacional Olaya Herrera",
        "segmento": 1,
        "algoritmo": "held_karp",
        "tipo": "ruta_tsp",
        "color": "#00FF00",
        "stroke": "#00FF00",
        "stroke-width": 3
      },
      "geometry": {
        "type": "LineString",
        "coordinates": [
          [
            -74.0645,
            4.6286
          ],
          [
            -74.0629,
            4.635
          ]
        ]
      }
    },
    {
      "type": "Feature",
      "properties": {
        "desde": "Parque Nacional Olaya Herrera",
        "hacia": "Centro Comercial Andino",
        "segmento": 2,
        "algoritmo": "held_karp",
        "tipo": "ruta_tsp",
        "color": "#00FF00",
        "stroke": "#00FF00",
        "stroke-width": 3
      },
      "geometry": {
        "type": "LineString",
        "coordinates": [
          [
            -74.0629,
            4.635
          ],
          [
            -74.0557,
            4.6397
          ]
        ]
      }
    },
    {
      "type": "Feature",
      "properties": {
        "desde": "Centro Comercial Andino",
        "hacia": "Parque de la 93",
        "segmento": 3,
        "algoritmo": "held_karp",
        "tipo": "ruta_tsp",
        "color": "#00FF00",
        "stroke": "#00FF00",
        "stroke-width": 3
      },
      "geometry": {
        "type": "LineString",
        "coordinates": [
          [
            -74.0557,
            4.6397
          ],
          [
            -74.0559,
            4.6682
          ]
        ]
      }
    },
    {
      "type": "Feature",
      "properties": {
        "desde": "Parque de la 93",
        "hacia": "Chapinero Alto",
        "segmento": 4,
        "algoritmo": "held_karp",
        "tipo": "ruta_tsp",
        "color": "#00FF00",
        "stroke": "#00FF00",
        "stroke-width": 3
      },
      "geometry": {
        "type": "LineString",
        "coordinates": [
          [
            -74.0559,
            4.6682
          ],
          [
            -74.048,
            4.676
          ]
        ]
      }
    },
    {
      "type": "Feature",
      "properties": {
        "desde": "Chapinero Alto",
        "hacia": "Centro Comercial Unicentro",
        "segmento": 5,
        "algoritmo": "held_karp",
        "tipo": "ruta_tsp",
        "color": "#00FF00",
        "stroke": "#00FF00",
        "stroke-width": 3
      },
      "geometry": {
        "type": "LineString",
        "coordinates": [
          [
            -74.048,
            4.676
          ],
          [
            -74.0721,
            4.711
          ]
        ]
      }
    },
    {
      "type": "Feature",
      "properties": {
        "desde": "Centro Comercial Unicentro",
        "hacia": "Plaza de Bolivar",
        "segmento": 6,
        "algoritmo": "held_karp",
        "tipo": "ruta_tsp",
        "color": "#00FF00",
        "stroke": "#00FF00",
        "stroke-width": 3
      },
      "geometry": {
        "type": "LineString",
        "coordinates": [
          [
            -74.0721,
            4.711
          ],
          [
            -74.0836,
            4.6534
          ]
        ]
      }
    },
    {
      "type": "Feature",
      "properties": {
        "desde": "Plaza de Bolivar",
        "hacia": "Parque Simon Bolivar",
        "segmento": 7,
        "algoritmo": "held_karp",
        "tipo": "ruta_tsp",
        "color": "#00FF00",
        "stroke": "#00FF00",
        "stroke-width": 3
      },
      "geometry": {
        "type": "LineString",
        "coordinates": [
          [
            -74.0836,
            4.6534
          ],
          [
            -74.0931,
            4.6392
          ]
        ]
      }
    },
    {
      "type": "Feature",
      "properties": {
        "desde": "Parque Simon Bolivar",
        "hacia": "Biblioteca Virgilio Barco",
        "segmento": 8,
        "algoritmo": "held_karp",
        "tipo": "ruta_tsp",
        "color": "#00FF00",
        "stroke": "#00FF00",
        "stroke-width": 3
      },
      "geometry": {
        "type": "LineString",
        "coordinates": [
          [
            -74.0931,
            4.6392
          ],
          [
            -74.1028,
            4.6486
          ]
        ]
      }
    },
    {
      "type": "Feature",
      "properties": {
        "desde": "Biblioteca Virgilio Barco",
        "hacia": "Monserrate",
        "segmento": 9,
        "algoritmo": "held_karp",
        "tipo": "ruta_tsp",
        "color": "#00FF00",
        "stroke": "#00FF00",
        "stroke-width": 3
      },
      "geometry": {
        "type": "LineString",
        "coordinates": [
          [
            -74.1028,
            4.6486
          ],
          [
            -74.0817,
            4.6097
          ]
        ]
      }
    },
    {
      "type": "Feature",
      "properties": {
        "desde": "Monserrate",
        "hacia": "Zona Rosa - Zona T",
        "segmento": 10,
        "algoritmo": "held_karp",
        "tipo": "ruta_tsp",
        "color": "#00FF00",
        "stroke": "#00FF00",
        "stroke-width": 3
      },
      "geometry": {
        "type": "LineString",
        "coordinates": [
          [
            -74.0817,
            4.6097
          ],
          [
            -74.0758,
            4.5981
          ]
        ]
      }
    },
    {
      "type": "Feature",
      "properties": {
        "desde": "Zona Rosa - Zona T",
        "hacia": "Teatro Colon",
        "segmento": 11,
        "algoritmo": "held_karp",
        "tipo": "ruta_tsp",
        "color": "#00FF00",
        "stroke": "#00FF00",
        "stroke-width": 3
      },
      "geometry": {
        "type": "LineString",
        "coordinates": [
          [
            -74.0758,
            4.5981
          ],
          [
            -74.066,
            4.6011
          ]
        ]
      }
    },
    {
      "type": "Feature",
      "properties": {
        "desde": "Teatro Colon",
        "hacia": "Barrio La Candelaria",
        "segmento": 12,
        "algoritmo": "held_karp",
        "tipo": "ruta_tsp",
        "color": "#00FF00",
        "stroke": "#00FF00",
        "stroke-width": 3
      },
      "geometry": {
        "type": "LineString",
        "coordinates": [
          [
            -74.066,
            4.6011
          ],
          [
            -74.0653,
            4.6181
          ]
        ]
      }
    },
    {
      "type": "Feature",
      "properties": {
        "desde": "Barrio La Candelaria",
        "hacia": "Planetario de Bogota",
        "segmento": 13,
        "algoritmo": "held_karp",
        "tipo": "ruta_tsp",
        "color": "#00FF00",
        "stroke": "#00FF00",
        "stroke-width": 3
      },
      "geometry": {
        "type": "LineString",
        "coordinates": [
          [
            -74.0653,
            4.6181
          ],
          [
            -74.068,
            4.625
          ]
        ]
      }
    },
    {
      "type": "Feature",
      "properties": {
        "desde": "Planetario de Bogota",
        "hacia": "Museo Nacional de Colombia",
        "segmento": 14,
        "algoritmo": "held_karp",
        "tipo": "ruta_tsp",
        "color": "#00FF00",
        "stroke": "#00FF00",
        "stroke-width": 3
      },
      "geometry": {
        "type": "LineString",
        "coordinates": [
          [
            -74.068,
            4.625
          ],
          [
            -74.071,
            4.632
          ]
        ]
      }
    },
    {
      "type": "Feature",
      "properties": {
        "desde": "Museo Nacional de Colombia",
        "hacia": "Universidad Javeriana",
        "segmento": 15,
        "algoritmo": "held_karp",
        "tipo": "ruta_tsp",
        "color": "#00FF00",
        "stroke": "#00FF00",
        "stroke-width": 3
      },
      "geometry": {
        "type": "LineString",
        "coordinates": [
          [
            -74.071,
            4.632
          ],
          [
            -74.0645,
            4.6286
          ]
        ]
      }
    },
    {
      "type": "Feature",
      "properties": {
        "nombre": "Universidad Javeriana",
        "orden_visita": 1,
        "algoritmo": "held_karp",
        "tipo": "punto_tsp",
        "color": "#00FF00",
        "stroke": "#00FF00",
        "stroke-width": 3
      },
      "geometry": {
        "type": "Point",
        "coordinates": [
          -74.0645,
          4.6286
        ]
      }
    },
    {
      "type": "Feature",
      "properties": {
        "nombre": "Parque Nacional Olaya Herrera",
        "orden_visita": 2,
        "algoritmo": "held_karp",
        "tipo": "punto_tsp",
        "color": "#00FF00",
        "stroke": "#00FF00",
        "stroke-width": 3
      },
      "geometry": {
        "type": "Point",
        "coordinates": [
          -74.0629,
          4.635
        ]
      }
    },
    {
      "type": "Feature",
      "properties": {
        "nombre": "Centro Comercial Andino",
        "orden_visita": 3,
        "algoritmo": "held_karp",
        "tipo": "punto_tsp",
        "color": "#00FF00",
        "stroke": "#00FF00",
        "stroke-width": 3
      },
      "geometry": {
        "type": "Point",
        "coordinates": [
          -74.0557,
          4.6397
        ]
      }
    },
    {
      "type": "Feature",
      "properties": {
        "nombre": "Parque de la 93",
        "orden_visita": 4,
        "algoritmo": "held_karp",
        "tipo": "punto_tsp",
        "color": "#00FF00",
        "stroke": "#00FF00",
        "stroke-width": 3
      },
      "geometry": {
        "type": "Point",
        "coordinates": [
          -74.0559,
          4.6682
        ]
      }
    },
    {
      "type": "Feature",
      "properties": {
        "nombre": "Chapinero Alto",
        "orden_visita": 5,
        "algoritmo": "held_karp",
        "tipo": "punto_tsp",
        "color": "#00FF00",
        "stroke": "#00FF00",
        "stroke-width": 3
      },
      "geometry": {
        "type": "Point",
        "coordinates": [
          -74.048,
          4.676
        ]
      }
    },
    {
      "type": "Feature",
      "properties": {
        "nombre": "Centro Comercial Unicentro",
        "orden_visita": 6,
        "algoritmo": "held_karp",
        "tipo": "punto_tsp",
        "color": "#00FF00",
        "stroke": "#00FF00",
        "stroke-width": 3
      },
      "geometry": {
        "type": "Point",
        "coordinates": [
          -74.0721,
          4.711
        ]
      }
    },
    {
      "type": "Feature",
      "properties": {
        "nombre": "Plaza de Bolivar",
        "orden_visita": 7,
        "algoritmo": "held_karp",
        "tipo": "punto_tsp",
        "color": "#00FF00",
        "stroke": "#00FF00",
        "stroke-width": 3
      },
      "geometry": {
        "type": "Point",
        "coordinates": [
          -74.0836,
          4.6534
        ]
      }
    },
    {
      "type": "Feature",
      "properties": {
        "nombre": "Parque Simon Bolivar",
        "orden_visita": 8,
        "algoritmo": "held_karp",
        "tipo": "punto_tsp",
        "color": "#00FF00",
        "stroke": "#00FF00",
        "stroke-width": 3
      },
      "geometry": {
        "type": "Point",
        "coordinates": [
          -74.0931,
          4.6392
        ]
      }
    },
    {
      "type": "Feature",
      "properties": {
        "nombre": "Biblioteca Virgilio Barco",
        "orden_visita": 9,
        "algoritmo": "held_karp",
        "tipo": "punto_tsp",
        "color": "#00FF00",
        "stroke": "#00FF00",
        "stroke-width": 3
      },
      "geometry": {
        "type": "Point",
        "coordinates": [
          -74.1028,
          4.6486
        ]
      }
    },
    {
      "type": "Feature",
      "properties": {
        "nombre": "Monserrate",
        "orden_visita": 10,
        "algoritmo": "held_karp",
        "tipo": "punto_tsp",
        "color": "#00FF00",
        "stroke": "#00FF00",
        "stroke-width": 3
      },
      "geometry": {
        "type": "Point",
        "coordinates": [
          -74.0817,
          4.6097
        ]
      }
    },
    {
      "type": "Feature",
      "properties": {
        "nombre": "Zona Rosa - Zona T",
        "orden_visita": 11,
        "algoritmo": "held_karp",
        "tipo": "punto_tsp",
        "color": "#00FF00",
        "stroke": "#00FF00",
        "stroke-width": 3
      },
      "geometry": {
        "type": "Point",
        "coordinates": [
          -74.0758,
          4.5981
        ]
      }
    },
    {
      "type": "Feature",
      "properties": {
        "nombre": "Teatro Colon",
        "orden_visita": 12,
        "algoritmo": "held_karp",
        "tipo": "punto_tsp",
        "color": "#00FF00",
        "stroke": "#00FF00",
        "stroke-width": 3
      },
      "geometry": {
        "type": "Point",
        "coordinates": [
          -74.066,
          4.6011
        ]
      }
    },
    {
      "type": "Feature",
      "properties": {
        "nombre": "Barrio La Candelaria",
        "orden_visita": 13,
        "algoritmo": "held_karp",
        "tipo": "punto_tsp",
        "color": "#00FF00",
        "stroke": "#00FF00",
        "stroke-width": 3
      },
      "geometry": {
        "type": "Point",
        "coordinates": [
          -74.0653,
          4.6181
        ]
      }
    },
    {
      "type": "Feature",
      "properties": {
        "nombre": "Planetario de Bogota",
        "orden_visita": 14,
        "algoritmo": "held_karp",
        "tipo": "punto_tsp",
        "color": "#00FF00",
        "stroke": "#00FF00",
        "stroke-width": 3
      },
      "geometry": {
        "type": "Point",
        "coordinates": [
          -74.068,
          4.625
        ]
      }
    },
    {
      "type": "Feature",
      "properties": {
        "nombre": "Museo Nacional de Colombia",
        "orden_visita": 15,
        "algoritmo": "held_karp",
        "tipo": "punto_tsp",
        "color": "#00FF00",
        "stroke": "#00FF00",
        "stroke-width": 3
      },
      "geometry": {
        "type": "Point",
        "coordinates": [
          -74.071,
          4.632
        ]
      }
    },
    {
      "type": "Feature",
      "properties": {
        "desde": "Universidad Javeriana",
        "hacia": "Parque Nacional Olaya Herrera",
        "segmento": 1,
        "algoritmo": "2opt",
        "tipo": "ruta_tsp",
        "color": "#FFA500",
        "stroke": "#FFA500",
        "stroke-width": 3
      },
      "geometry": {
        "type": "LineString",
        "coordinates": [
          [
            -74.0645,
            4.6286
          ],
          [
            -74.0629,
            4.635
          ]
        ]
      }
    },
    {
      "type": "Feature",
      "properties": {
        "desde": "Parque Nacional Olaya Herrera",
        "hacia": "Centro Comercial Andino",
        "segmento": 2,
        "algoritmo": "2opt",
        "tipo": "ruta_tsp",
        "color": "#FFA500",
        "stroke": "#FFA500",
        "stroke-width": 3
      },
      "geometry": {
        "type": "LineString",
        "coordinates": [
          [
            -74.0629,
            4.635
          ],
          [
            -74.0557,
            4.6397
          ]
        ]
      }
    },
    {
      "type": "Feature",
      "properties": {
        "desde": "Centro Comercial Andino",
        "hacia": "Parque de la 93",
        "segmento": 3,
        "algoritmo": "2opt",
        "tipo": "ruta_tsp",
        "color": "#FFA500",
        "stroke": "#FFA500",
        "stroke-width": 3
      },
      "geometry": {
        "type": "LineString",
        "coordinates": [
          [
            -74.0557,
            4.6397
          ],
          [
            -74.0559,
            4.6682
          ]
        ]
      }
    },
    {
      "type": "Feature",
      "properties": {
        "desde": "Parque de la 93",
        "hacia": "Chapinero Alto",
        "segmento": 4,
        "algoritmo": "2opt",
        "tipo": "ruta_tsp",
        "color": "#FFA500",
        "stroke": "#FFA500",
        "stroke-width": 3
      },
      "geometry": {
        "type": "LineString",
        "coordinates": [
          [
            -74.0559,
            4.6682
          ],
          [
            -74.048,
            4.676
          ]
        ]
      }
    },
    {
      "type": "Feature",
      "properties": {
        "desde": "Chapinero Alto",
        "hacia": "Centro Comercial Unicentro",
        "segmento": 5,
        "algoritmo": "2opt",
        "tipo": "ruta_tsp",
        "color": "#FFA500",
        "stroke": "#FFA500",
        "stroke-width": 3
      },
      "geometry": {
        "type": "LineString",
        "coordinates": [
          [
            -74.048,
            4.676
          ],
          [
            -74.0721,
            4.711
          ]
        ]
      }
    },
    {
      "type": "Feature",
      "properties": {
        "desde": "Centro Comercial Unicentro",
        "hacia": "Plaza de Bolivar",
        "segmento": 6,
        "algoritmo": "2opt",
        "tipo": "ruta_tsp",
        "color": "#FFA500",
        "stroke": "#FFA500",
        "stroke-width": 3
      },
      "geometry": {
        "type": "LineString",
        "coordinates": [
          [
            -74.0721,
            4.711
          ],
          [
            -74.0836,
            4.6534
          ]
        ]
      }
    },
    {
      "type": "Feature",
      "properties": {
        "desde": "Plaza de Bolivar",
        "hacia": "Parque Simon Bolivar",
        "segmento": 7,
        "algoritmo": "2opt",
        "tipo": "ruta_tsp",
        "color": "#FFA500",
        "stroke": "#FFA500",
        "stroke-width": 3
      },
      "geometry": {
        "type": "LineString",
        "coordinates": [
          [
            -74.0836,
            4.6534
          ],
          [
            -74.0931,
            4.6392
          ]
        ]
      }
    },
    {
      "type": "Feature",
      "properties": {
        "desde": "Parque Simon Bolivar",
        "hacia": "Biblioteca Virgilio Barco",
        "segmento": 8,
        "algoritmo": "2opt",
        "tipo": "ruta_tsp",
        "color": "#FFA500",
        "stroke": "#FFA500",
        "stroke-width": 3
      },
      "geometry": {
        "type": "LineString",
        "coordinates": [
          [
            -74.0931,
            4.6392
          ],
          [
            -74.1028,
            4.6486
          ]
        ]
      }
    },
    {
      "type": "Feature",
      "properties": {
        "desde": "Biblioteca Virgilio Barco",
        "hacia": "Monserrate",
        "segmento": 9,
        "algoritmo": "2opt",
        "tipo": "ruta_tsp",
        "color": "#FFA500",
        "stroke": "#FFA500",
        "stroke-width": 3
      },
      "geometry": {
        "type": "LineString",
        "coordinates": [
          [
            -74.1028,
            4.6486
          ],
          [
            -74.0817,
            4.6097
          ]
        ]
      }
    },
    {
      "type": "Feature",
      "properties": {
        "desde": "Monserrate",
        "hacia": "Zona Rosa - Zona T",
        "segmento": 10,
        "algoritmo": "2opt",
        "tipo": "ruta_tsp",
        "color": "#FFA500",
        "stroke": "#FFA500",
        "stroke-width": 3
      },
      "geometry": {
        "type": "LineString",
        "coordinates": [
          [
            -74.0817,
            4.6097
          ],
          [
            -74.0758,
            4.5981
          ]
        ]
      }
    },
    {
      "type": "Feature",
      "properties": {
        "desde": "Zona Rosa - Zona T",
        "hacia": "Teatro Colon",
        "segmento": 11,
        "algoritmo": "2opt",
        "tipo": "ruta_tsp",
        "color": "#FFA500",
        "stroke": "#FFA500",
        "stroke-width": 3
      },
      "geometry": {
        "type": "LineString",
        "coordinates": [
          [
            -74.0758,
            4.5981
          ],
          [
            -74.066,
            4.6011
          ]
        ]
      }
    },
    {
      "type": "Feature",
      "properties": {
        "desde": "Teatro Colon",
        "hacia": "Barrio La Candelaria",
        "segmento": 12,
        "algoritmo": "2opt",
        "tipo": "ruta_tsp",
        "color": "#FFA500",
        "stroke": "#FFA500",
        "stroke-width": 3
      },
      "geometry": {
        "type": "LineString",
        "coordinates": [
          [
            -74.066,
            4.6011
          ],
          [
            -74.0653,
            4.6181
          ]
        ]
      }
    },
    {
      "type": "Feature",
      "properties": {
        "desde": "Barrio La Candelaria",
        "hacia": "Planetario de Bogota",
        "segmento": 13,
        "algoritmo": "2opt",
        "tipo": "ruta_tsp",
        "color": "#FFA500",
        "stroke": "#FFA500",
        "stroke-width": 3
      },
      "geometry": {
        "type": "LineString",
        "coordinates": [
          [
            -74.0653,
            4.6181
          ],
          [
            -74.068,
            4.625
          ]
        ]
      }
    },
    {
      "type": "Feature",
      "properties": {
        "desde": "Planetario de Bogota",
        "hacia": "Museo Nacional de Colombia",
        "segmento": 14,
        "algoritmo": "2opt",
        "tipo": "ruta_tsp",
        "color": "#FFA500",
        "stroke": "#FFA500",
        "stroke-width": 3
      },
      "geometry": {
        "type": "LineString",
        "coordinates": [
          [
            -74.068,
            4.625
          ],
          [
            -74.071,
            4.632
          ]
        ]
      }
    },
    {
      "type": "Feature",
      "properties": {
        "desde": "Museo Nacional de Colombia",
        "hacia": "Universidad Javeriana",
        "segmento": 15,
        "algoritmo": "2opt",
        "tipo": "ruta_tsp",
        "color": "#FFA500",
        "stroke": "#FFA500",
        "stroke-width": 3
      },
      "geometry": {
        "type": "LineString",
        "coordinates": [
          [
            -74.071,
            4.632
          ],
          [
            -74.0645,
            4.6286
          ]
        ]
      }
    },
    {
      "type": "Feature",
      "properties": {
        "nombre": "Universidad Javeriana",
        "orden_visita": 1,
        "algoritmo": "2opt",
        "tipo": "punto_tsp",
        "color": "#FFA500",
        "stroke": "#FFA500",
        "stroke-width": 3
      },
      "geometry": {
        "type": "Point",
        "coordinates": [
          -74.0645,
          4.6286
        ]
      }
    },
    {
      "type": "Feature",
      "properties": {
        "nombre": "Parque Nacional Olaya Herrera",
        "orden_visita": 2,
        "algoritmo": "2opt",
        "tipo": "punto_tsp",
        "color": "#FFA500",
        "stroke": "#FFA500",
        "stroke-width": 3
      },
      "geometry": {
        "type": "Point",
        "coordinates": [
          -74.0629,
          4.635
        ]
      }
    },
    {
      "type": "Feature",
      "properties": {
        "nombre": "Centro Comercial Andino",
        "orden_visita": 3,
        "algoritmo": "2opt",
        "tipo": "punto_tsp",
        "color": "#FFA500",
        "stroke": "#FFA500",
        "stroke-width": 3
      },
      "geometry": {
        "type": "Point",
        "coordinates": [
          -74.0557,
          4.6397
        ]
      }
    },
    {
      "type": "Feature",
      "properties": {
        "nombre": "Parque de la 93",
        "orden_visita": 4,
        "algoritmo": "2opt",
        "tipo": "punto_tsp",
        "color": "#FFA500",
        "stroke": "#FFA500",
        "stroke-width": 3
      },
      "geometry": {
        "type": "Point",
        "coordinates": [
          -74.0559,
          4.6682
        ]
      }
    },
    {
      "type": "Feature",
      "properties": {
        "nombre": "Chapinero Alto",
        "orden_visita": 5,
        "algoritmo": "2opt",
        "tipo": "punto_tsp",
        "color": "#FFA500",
        "stroke": "#FFA500",
        "stroke-width": 3
      },
      "geometry": {
        "type": "Point",
        "coordinates": [
          -74.048,
          4.676
        ]
      }
    },
    {
      "type": "Feature",
      "properties": {
        "nombre": "Centro Comercial Unicentro",
        "orden_visita": 6,
        "algoritmo": "2opt",
        "tipo": "punto_tsp",
        "color": "#FFA500",
        "stroke": "#FFA500",
        "stroke-width": 3
      },
      "geometry": {
        "type": "Point",
        "coordinates": [
          -74.0721,
          4.711
        ]
      }
    },
    {
      "type": "Feature",
      "properties": {
        "nombre": "Plaza de Bolivar",
        "orden_visita": 7,
        "algoritmo": "2opt",
        "tipo": "punto_tsp",
        "color": "#FFA500",
        "stroke": "#FFA500",
        "stroke-width": 3
      },
      "geometry": {
        "type": "Point",
        "coordinates": [
          -74.0836,
          4.6534
        ]
      }
    },
    {
      "type": "Feature",
      "properties": {
        "nombre": "Parque Simon Bolivar",
        "orden_visita": 8,
        "algoritmo": "2opt",
        "tipo": "punto_tsp",
        "color": "#FFA500",
        "stroke": "#FFA500",
        "stroke-width": 3
      },
      "geometry": {
        "type": "Point",
        "coordinates": [
          -74.0931,
          4.6392
        ]
      }
    },
    {
      "type": "Feature",
      "properties": {
        "nombre": "Biblioteca Virgilio Barco",
        "orden_visita": 9,
        "algoritmo": "2opt",
        "tipo": "punto_tsp",
        "color": "#FFA500",
        "stroke": "#FFA500",
        "stroke-width": 3
      },
      "geometry": {
        "type": "Point",
        "coordinates": [
          -74.1028,
          4.6486
        ]
      }
    },
    {
      "type": "Feature",
      "properties": {
        "nombre": "Monserrate",
        "orden_visita": 10,
        "algoritmo": "2opt",
        "tipo": "punto_tsp",
        "color": "#FFA500",
        "stroke": "#FFA500",
        "stroke-width": 3
      },
      "geometry": {
        "type": "Point",
        "coordinates": [
          -74.0817,
          4.6097
        ]
      }
    },
    {
      "type": "Feature",
      "properties": {
        "nombre": "Zona Rosa - Zona T",
        "orden_visita": 11,
        "algoritmo": "2opt",
        "tipo": "punto_tsp",
        "color": "#FFA500",
        "stroke": "#FFA500",
        "stroke-width": 3
      },
      "geometry": {
        "type": "Point",
        "coordinates": [
          -74.0758,
          4.5981
        ]
      }
    },
    {
      "type": "Feature",
      "properties": {
        "nombre": "Teatro Colon",
        "orden_visita": 12,
        "algoritmo": "2opt",
        "tipo": "punto_tsp",
        "color": "#FFA500",
        "stroke": "#FFA500",
        "stroke-width": 3
      },
      "geometry": {
        "type": "Point",
        "coordinates": [
          -74.066,
          4.6011
        ]
      }
    },
    {
      "type": "Feature",
      "properties": {
        "nombre": "Barrio La Candelaria",
        "orden_visita": 13,
        "algoritmo": "2opt",
        "tipo": "punto_tsp",
        "color": "#FFA500",
        "stroke": "#FFA500",
        "stroke-width": 3
      },
      "geometry": {
        "type": "Point",
        "coordinates": [
          -74.0653,
          4.6181
        ]
      }
    },
    {
      "type": "Feature",
      "properties": {
        "nombre": "Planetario de Bogota",
        "orden_visita": 14,
        "algoritmo": "2opt",
        "tipo": "punto_tsp",
        "color": "#FFA500",
        "stroke": "#FFA500",
        "stroke-width": 3
      },
      "geometry": {
        "type": "Point",
        "coordinates": [
          -74.068,
          4.625
        ]
      }
    },
    {
      "type": "Feature",
      "properties": {
        "nombre": "Museo Nacional de Colombia",
        "orden_visita": 15,
        "algoritmo": "2opt",
        "tipo": "punto_tsp",
        "color": "#FFA500",
        "stroke": "#FFA500",
        "stroke-width": 3
      },
      "geometry": {
        "type": "Point",
        "coordinates": [
          -74.071,
          4.632
        ]
      }
    }
  ]
}